{
  "links" : {
    "next" : "https://api.nasa.gov/neo/rest/v1/feed?start_date=2010-11-09&end_date=2010-11-09&detailed=true&api_key=t0TVs3DtDT2H8Oy2Zy8m2eVrNsAVKAexjcZXUckd",
    "prev" : "https://api.nasa.gov/neo/rest/v1/feed?start_date=2010-11-07&end_date=2010-11-07&detailed=true&api_key=t0TVs3DtDT2H8Oy2Zy8m2eVrNsAVKAexjcZXUckd",
    "self" : "https://api.nasa.gov/neo/rest/v1/feed?start_date=2010-11-08&end_date=2010-11-08&detailed=true&api_key=t0TVs3DtDT2H8Oy2Zy8m2eVrNsAVKAexjcZXUckd"
  },
  "element_count" : 9,
  "near_earth_objects" : {
    "2010-11-08" : [ {
      "links" : {
        "self" : "https://api.nasa.gov/neo/rest/v1/neo/2333480?api_key=t0TVs3DtDT2H8Oy2Zy8m2eVrNsAVKAexjcZXUckd"
      },
      "neo_reference_id" : "2333480",
      "name" : "333480 (2004 TC10)",
      "nasa_jpl_url" : "http://ssd.jpl.nasa.gov/sbdb.cgi?sstr=2333480",
      "absolute_magnitude_h" : 20.2,
      "estimated_diameter" : {
        "kilometers" : {
          "estimated_diameter_min" : 0.2424124811,
          "estimated_diameter_max" : 0.5420507863
        },
        "meters" : {
          "estimated_diameter_min" : 242.4124811008,
          "estimated_diameter_max" : 542.0507863358
        },
        "miles" : {
          "estimated_diameter_min" : 0.1506280858,
          "estimated_diameter_max" : 0.3368146392
        },
        "feet" : {
          "estimated_diameter_min" : 795.3165644948,
          "estimated_diameter_max" : 1778.3819018419
        }
      },
      "is_potentially_hazardous_asteroid" : false,
      "close_approach_data" : [ {
        "close_approach_date" : "2010-11-08",
        "epoch_date_close_approach" : 1289203200000,
        "relative_velocity" : {
          "kilometers_per_second" : "14.9594331651",
          "kilometers_per_hour" : "53853.9593945353",
          "miles_per_hour" : "33462.7560471211"
        },
        "miss_distance" : {
          "astronomical" : "0.1508847507",
          "lunar" : "58.6941680908",
          "kilometers" : "22572038",
          "miles" : "14025614"
        },
        "orbiting_body" : "Earth"
      } ],
      "orbital_data" : {
        "orbit_id" : "29",
        "orbit_determination_date" : "2017-09-18 06:55:34",
        "orbit_uncertainty" : "0",
        "minimum_orbit_intersection" : ".139163",
        "jupiter_tisserand_invariant" : "5.466",
        "epoch_osculation" : "2458000.5",
        "eccentricity" : ".4072315514275167",
        "semi_major_axis" : "1.120538537282404",
        "inclination" : "14.10491473084526",
        "ascending_node_longitude" : "16.4603583636333",
        "orbital_period" : "433.2500512737769",
        "perihelion_distance" : ".6642198903105706",
        "perihelion_argument" : "135.9943885891668",
        "aphelion_distance" : "1.576857184254238",
        "perihelion_time" : "2458175.045563395433",
        "mean_anomaly" : "214.9650423869225",
        "mean_motion" : ".830928926474635",
        "equinox" : "J2000"
      }
    }, {
      "links" : {
        "self" : "https://api.nasa.gov/neo/rest/v1/neo/2436030?api_key=t0TVs3DtDT2H8Oy2Zy8m2eVrNsAVKAexjcZXUckd"
      },
      "neo_reference_id" : "2436030",
      "name" : "436030 (2009 JO2)",
      "nasa_jpl_url" : "http://ssd.jpl.nasa.gov/sbdb.cgi?sstr=2436030",
      "absolute_magnitude_h" : 19.4,
      "estimated_diameter" : {
        "kilometers" : {
          "estimated_diameter_min" : 0.3503926411,
          "estimated_diameter_max" : 0.7835017643
        },
        "meters" : {
          "estimated_diameter_min" : 350.3926411083,
          "estimated_diameter_max" : 783.5017643338
        },
        "miles" : {
          "estimated_diameter_min" : 0.2177238258,
          "estimated_diameter_max" : 0.4868452748
        },
        "feet" : {
          "estimated_diameter_min" : 1149.5821926537,
          "estimated_diameter_max" : 2570.543928497
        }
      },
      "is_potentially_hazardous_asteroid" : false,
      "close_approach_data" : [ {
        "close_approach_date" : "2010-11-08",
        "epoch_date_close_approach" : 1289203200000,
        "relative_velocity" : {
          "kilometers_per_second" : "22.2395754627",
          "kilometers_per_hour" : "80062.4716655728",
          "miles_per_hour" : "49747.7063524221"
        },
        "miss_distance" : {
          "astronomical" : "0.4956403555",
          "lunar" : "192.804107666",
          "kilometers" : "74146744",
          "miles" : "46072652"
        },
        "orbiting_body" : "Earth"
      } ],
      "orbital_data" : {
        "orbit_id" : "42",
        "orbit_determination_date" : "2017-04-06 09:20:45",
        "orbit_uncertainty" : "1",
        "minimum_orbit_intersection" : ".054975",
        "jupiter_tisserand_invariant" : "6.540",
        "epoch_osculation" : "2458000.5",
        "eccentricity" : ".4782238870326821",
        "semi_major_axis" : ".8884139717785468",
        "inclination" : "19.63484850169642",
        "ascending_node_longitude" : "203.4662406372868",
        "orbital_period" : "305.8591637319883",
        "perihelion_distance" : ".4635531889004665",
        "perihelion_argument" : "239.6872797952229",
        "aphelion_distance" : "1.313274754656627",
        "perihelion_time" : "2457970.065590580084",
        "mean_anomaly" : "35.82167445135119",
        "mean_motion" : "1.177012307257379",
        "equinox" : "J2000"
      }
    }, {
      "links" : {
        "self" : "https://api.nasa.gov/neo/rest/v1/neo/3277704?api_key=t0TVs3DtDT2H8Oy2Zy8m2eVrNsAVKAexjcZXUckd"
      },
      "neo_reference_id" : "3277704",
      "name" : "(2005 JR5)",
      "nasa_jpl_url" : "http://ssd.jpl.nasa.gov/sbdb.cgi?sstr=3277704",
      "absolute_magnitude_h" : 22.1,
      "estimated_diameter" : {
        "kilometers" : {
          "estimated_diameter_min" : 0.1010543415,
          "estimated_diameter_max" : 0.2259643771
        },
        "meters" : {
          "estimated_diameter_min" : 101.054341542,
          "estimated_diameter_max" : 225.9643771094
        },
        "miles" : {
          "estimated_diameter_min" : 0.0627922373,
          "estimated_diameter_max" : 0.140407711
        },
        "feet" : {
          "estimated_diameter_min" : 331.5431259047,
          "estimated_diameter_max" : 741.3529669956
        }
      },
      "is_potentially_hazardous_asteroid" : false,
      "close_approach_data" : [ {
        "close_approach_date" : "2010-11-08",
        "epoch_date_close_approach" : 1289203200000,
        "relative_velocity" : {
          "kilometers_per_second" : "15.6732222209",
          "kilometers_per_hour" : "56423.599995236",
          "miles_per_hour" : "35059.4307859288"
        },
        "miss_distance" : {
          "astronomical" : "0.2250544852",
          "lunar" : "87.5461959839",
          "kilometers" : "33667672",
          "miles" : "20920122"
        },
        "orbiting_body" : "Earth"
      } ],
      "orbital_data" : {
        "orbit_id" : "18",
        "orbit_determination_date" : "2017-04-06 09:11:00",
        "orbit_uncertainty" : "0",
        "minimum_orbit_intersection" : ".0549144",
        "jupiter_tisserand_invariant" : "5.293",
        "epoch_osculation" : "2458000.5",
        "eccentricity" : ".1538369907726766",
        "semi_major_axis" : "1.157817149428843",
        "inclination" : "31.0424516089619",
        "ascending_node_longitude" : "49.31999676585112",
        "orbital_period" : "455.0492405086502",
        "perihelion_distance" : ".9797020432957113",
        "perihelion_argument" : "246.8332902517551",
        "aphelion_distance" : "1.335932255561975",
        "perihelion_time" : "2458117.763610536657",
        "mean_anomaly" : "267.2300401028926",
        "mean_motion" : ".7911231751482434",
        "equinox" : "J2000"
      }
    } ]
  }
}